{
  "type": "FeatureCollection",
  "features": [
    {
      "type": "Feature",
      "properties": {
        "norad_id": 66718,
        "name": "FLOCK 4H-15",
        "group": "last-30-days",
        "lat": -61.063566083139975,
        "lon": 86.15887402663977,
        "alt_km": 520.1814076549745,
        "timestamp": "2025-12-26T23:26:40.920684+00:00",
        "meta_object_name": "FLOCK 4H-15",
        "meta_object_id": "2025-276BE",
        "meta_epoch": "2025-12-26T15:48:10.048896",
        "meta_mean_motion": 15.17154123,
        "meta_eccentricity": 0.0003159,
        "meta_inclination": 97.4416,
        "meta_ra_of_asc_node": 72.1709,
        "meta_arg_of_pericenter": 250.499,
        "meta_mean_anomaly": 109.5902,
        "meta_ephemeris_type": 0,
        "meta_classification_type": "U",
        "meta_norad_cat_id": 66718,
        "meta_element_set_no": 999,
        "meta_rev_at_epoch": 423,
        "meta_bstar": 0.00051031,
        "meta_mean_motion_dot": 0.00010069,
        "meta_mean_motion_ddot": 0,
        "tle_line1": "1 66718U 25276BE  25360.65844964  .00010069  00000+0  51031-3 0  9990",
        "tle_line2": "2 66718  97.4416  72.1709 0003159 250.4990 109.5902 15.17154123  4239"
      },
      "geometry": {
        "type": "Point",
        "coordinates": [
          86.15887402663977,
          -61.063566083139975
        ]
      }
    },
    {
      "type": "Feature",
      "properties": {
        "norad_id": 66719,
        "name": "FLOCK 4H-16",
        "group": "last-30-days",
        "lat": -50.49249125988351,
        "lon": 81.61659128138703,
        "alt_km": 520.5940104136698,
        "timestamp": "2025-12-26T23:26:40.920695+00:00",
        "meta_object_name": "FLOCK 4H-16",
        "meta_object_id": "2025-276BF",
        "meta_epoch": "2025-12-26T18:00:02.998944",
        "meta_mean_motion": 15.17287765,
        "meta_eccentricity": 0.0003424,
        "meta_inclination": 97.4432,
        "meta_ra_of_asc_node": 72.2709,
        "meta_arg_of_pericenter": 230.4796,
        "meta_mean_anomaly": 280.2842,
        "meta_ephemeris_type": 0,
        "meta_classification_type": "U",
        "meta_norad_cat_id": 66719,
        "meta_element_set_no": 999,
        "meta_rev_at_epoch": 367,
        "meta_bstar": -0.0010767,
        "meta_mean_motion_dot": -0.00021438,
        "meta_mean_motion_ddot": 0,
        "tle_line1": "1 66719U 25276BF  25360.75003471 -.00021438  00000+0 -10767-2 0  9996",
        "tle_line2": "2 66719  97.4432  72.2709 0003424 230.4796 280.2842 15.17287765  3672"
      },
      "geometry": {
        "type": "Point",
        "coordinates": [
          81.61659128138703,
          -50.49249125988351
        ]
      }
    },
    {
      "type": "Feature",
      "properties": {
        "norad_id": 66720,
        "name": "FLOCK 4H-17",
        "group": "last-30-days",
        "lat": 31.188007626751187,
        "lon": 67.99284003580624,
        "alt_km": 512.8878219498647,
        "timestamp": "2025-12-26T23:26:40.920706+00:00",
        "meta_object_name": "FLOCK 4H-17",
        "meta_object_id": "2025-276BG",
        "meta_epoch": "2025-12-26T16:58:41.582208",
        "meta_mean_motion": 15.18021557,
        "meta_eccentricity": 0.000485,
        "meta_inclination": 97.4432,
        "meta_ra_of_asc_node": 72.2669,
        "meta_arg_of_pericenter": 174.6666,
        "meta_mean_anomaly": 185.462,
        "meta_ephemeris_type": 0,
        "meta_classification_type": "U",
        "meta_norad_cat_id": 66720,
        "meta_element_set_no": 999,
        "meta_rev_at_epoch": 424,
        "meta_bstar": -0.0023229,
        "meta_mean_motion_dot": -0.00047,
        "meta_mean_motion_ddot": 0,
        "tle_line1": "1 66720U 25276BG  25360.70742572 -.00047000  00000+0 -23229-2 0  9995",
        "tle_line2": "2 66720  97.4432  72.2669 0004850 174.6666 185.4620 15.18021557  4248"
      },
      "geometry": {
        "type": "Point",
        "coordinates": [
          67.99284003580624,
          31.188007626751187
        ]
      }
    },
    {
      "type": "Feature",
      "properties": {
        "norad_id": 66721,
        "name": "FLOCK 4H-18",
        "group": "last-30-days",
        "lat": -57.72627373752673,
        "lon": 84.40605324997676,
        "alt_km": 520.2065810717659,
        "timestamp": "2025-12-26T23:26:40.920717+00:00",
        "meta_object_name": "FLOCK 4H-18",
        "meta_object_id": "2025-276BH",
        "meta_epoch": "2025-12-26T15:47:15.730080",
        "meta_mean_motion": 15.17181784,
        "meta_eccentricity": 0.0002423,
        "meta_inclination": 97.4376,
        "meta_ra_of_asc_node": 72.1548,
        "meta_arg_of_pericenter": 262.5456,
        "meta_mean_anomaly": 97.5502,
        "meta_ephemeris_type": 0,
        "meta_classification_type": "U",
        "meta_norad_cat_id": 66721,
        "meta_element_set_no": 999,
        "meta_rev_at_epoch": 423,
        "meta_bstar": 0.0003098,
        "meta_mean_motion_dot": 6.088e-05,
        "meta_mean_motion_ddot": 0,
        "tle_line1": "1 66721U 25276BH  25360.65782095  .00006088  00000+0  30980-3 0  9996",
        "tle_line2": "2 66721  97.4376  72.1548 0002423 262.5456  97.5502 15.17181784  4238"
      },
      "geometry": {
        "type": "Point",
        "coordinates": [
          84.40605324997676,
          -57.72627373752673
        ]
      }
    },
    {
      "type": "Feature",
      "properties": {
        "norad_id": 66722,
        "name": "FLOCK 4H-19",
        "group": "last-30-days",
        "lat": 49.60935197337347,
        "lon": 63.68314189209857,
        "alt_km": 506.4636112114531,
        "timestamp": "2025-12-26T23:26:40.920728+00:00",
        "meta_object_name": "FLOCK 4H-19",
        "meta_object_id": "2025-276BJ",
        "meta_epoch": "2025-12-26T15:18:57.766176",
        "meta_mean_motion": 15.18349081,
        "meta_eccentricity": 0.0002586,
        "meta_inclination": 97.4379,
        "meta_ra_of_asc_node": 72.183,
        "meta_arg_of_pericenter": 145.5979,
        "meta_mean_anomaly": 214.5423,
        "meta_ephemeris_type": 0,
        "meta_classification_type": "U",
        "meta_norad_cat_id": 66722,
        "meta_element_set_no": 999,
        "meta_rev_at_epoch": 352,
        "meta_bstar": 0.00082313,
        "meta_mean_motion_dot": 0.00016864,
        "meta_mean_motion_ddot": 0,
        "tle_line1": "1 66722U 25276BJ  25360.63816859  .00016864  00000+0  82313-3 0  9991",
        "tle_line2": "2 66722  97.4379  72.1830 0002586 145.5979 214.5423 15.18349081  3527"
      },
      "geometry": {
        "type": "Point",
        "coordinates": [
          63.68314189209857,
          49.60935197337347
        ]
      }
    },
    {
      "type": "Feature",
      "properties": {
        "norad_id": 66723,
        "name": "FLOCK 4H-20",
        "group": "last-30-days",
        "lat": 53.561335444101616,
        "lon": 62.33635538570018,
        "alt_km": 506.30611624142875,
        "timestamp": "2025-12-26T23:26:40.920754+00:00",
        "meta_object_name": "FLOCK 4H-20",
        "meta_object_id": "2025-276BK",
        "meta_epoch": "2025-12-26T15:17:54.076416",
        "meta_mean_motion": 15.18366093,
        "meta_eccentricity": 0.0003115,
        "meta_inclination": 97.4414,
        "meta_ra_of_asc_node": 72.1993,
        "meta_arg_of_pericenter": 160.1629,
        "meta_mean_anomaly": 199.9726,
        "meta_ephemeris_type": 0,
        "meta_classification_type": "U",
        "meta_norad_cat_id": 66723,
        "meta_element_set_no": 999,
        "meta_rev_at_epoch": 348,
        "meta_bstar": 0.00047225,
        "meta_mean_motion_dot": 9.642e-05,
        "meta_mean_motion_ddot": 0,
        "tle_line1": "1 66723U 25276BK  25360.63743144  .00009642  00000+0  47225-3 0  9997",
        "tle_line2": "2 66723  97.4414  72.1993 0003115 160.1629 199.9726 15.18366093  3481"
      },
      "geometry": {
        "type": "Point",
        "coordinates": [
          62.33635538570018,
          53.561335444101616
        ]
      }
    },
    {
      "type": "Feature",
      "properties": {
        "norad_id": 66724,
        "name": "FLOCK 4H-21",
        "group": "last-30-days",
        "lat": 57.02528943161255,
        "lon": 60.902193380599506,
        "alt_km": 506.0735226017796,
        "timestamp": "2025-12-26T23:26:40.920766+00:00",
        "meta_object_name": "FLOCK 4H-21",
        "meta_object_id": "2025-276BL",
        "meta_epoch": "2025-12-26T10:32:15.855360",
        "meta_mean_motion": 15.18368984,
        "meta_eccentricity": 0.0002071,
        "meta_inclination": 97.4381,
        "meta_ra_of_asc_node": 71.9904,
        "meta_arg_of_pericenter": 178.7991,
        "meta_mean_anomaly": 181.3249,
        "meta_ephemeris_type": 0,
        "meta_classification_type": "U",
        "meta_norad_cat_id": 66724,
        "meta_element_set_no": 999,
        "meta_rev_at_epoch": 345,
        "meta_bstar": -0.00073348,
        "meta_mean_motion_dot": -0.00015096,
        "meta_mean_motion_ddot": 0,
        "tle_line1": "1 66724U 25276BL  25360.43907240 -.00015096  00000+0 -73348-3 0  9992",
        "tle_line2": "2 66724  97.4381  71.9904 0002071 178.7991 181.3249 15.18368984  3454"
      },
      "geometry": {
        "type": "Point",
        "coordinates": [
          60.902193380599506,
          57.02528943161255
        ]
      }
    }
  ]
}